{"type": "FeatureCollection", "features": [ {"type": "Feature", "properties": {"norad_id": 33153, "name": "INTELSAT 25 (IS-25)", "group": "intelsat", "lat": -0.07780259844159142, "lon": -96.12097394975962, "alt_km": 35766.08439602394, "timestamp": "2025-12-18T13:51:49.328418+00:00", "meta": {"OBJECT_NAME": "INTELSAT 25 (IS-25)", "OBJECT_ID": "2008-034A", "EPOCH": "2025-12-18T01:09:35.057088", "MEAN_MOTION": 1.00270798, "ECCENTRICITY": 0.00048078, "INCLINATION": 2.2407, "RA_OF_ASC_NODE": 82.593, "ARG_OF_PERICENTER": 185.1841, "MEAN_ANOMALY": 165.035, "EPHEMERIS_TYPE": 0, "CLASSIFICATION_TYPE": "U", "NORAD_CAT_ID": 33153, "ELEMENT_SET_NO": 999, "REV_AT_EPOCH": 6387, "BSTAR": 0, "MEAN_MOTION_DOT": -2.01e-06, "MEAN_MOTION_DDOT": 0}, "tle": {"line1": "1 33153U 08034A   25352.04832242 -.00000201  00000+0  00000+0 0  9994", "line2": "2 33153   2.2407  82.5930 0004807 185.1841 165.0350  1.00270798 63874"}}, "geometry": {"type": "Point", "coordinates": [-96.12097394975962, -0.07780259844159142]}}, {"type": "Feature", "properties": {"norad_id": 33376, "name": "GALAXY 19 (G-19)", "group": "intelsat", "lat": -0.0290826983045429, "lon": -161.64777541255816, "alt_km": 35782.85331280824, "timestamp": "2025-12-18T13:51:49.328430+00:00", "meta": {"OBJECT_NAME": "GALAXY 19 (G-19)", "OBJECT_ID": "2008-045A", "EPOCH": "2025-12-17T23:08:16.678752", "MEAN_MOTION": 1.00271057, "ECCENTRICITY": 0.00025032, "INCLINATION": 0.0205, "RA_OF_ASC_NODE": 284.9643, "ARG_OF_PERICENTER": 344.4363, "MEAN_ANOMALY": 67.5013, "EPHEMERIS_TYPE": 0, "CLASSIFICATION_TYPE": "U", "NORAD_CAT_ID": 33376, "ELEMENT_SET_NO": 999, "REV_AT_EPOCH": 6308, "BSTAR": 0, "MEAN_MOTION_DOT": -1.14e-06, "MEAN_MOTION_DDOT": 0}, "tle": {"line1": "1 33376U 08045A   25351.96408193 -.00000114  00000+0  00000+0 0  9990", "line2": "2 33376   0.0205 284.9643 0002503 344.4363  67.5013  1.00271057 63086"}}, "geometry": {"type": "Point", "coordinates": [-161.64777541255816, -0.0290826983045429]}}, {"type": "Feature", "properties": {"norad_id": 35493, "name": "FM-5", "group": "intelsat", "lat": -0.03284668939443307, "lon": -150.75765535933903, "alt_km": 35785.07679340177, "timestamp": "2025-12-18T13:51:49.328442+00:00", "meta": {"OBJECT_NAME": "FM-5", "OBJECT_ID": "2009-034A", "EPOCH": "2025-12-18T06:01:22.018656", "MEAN_MOTION": 1.00270493, "ECCENTRICITY": 7.56e-05, "INCLINATION": 0.0177, "RA_OF_ASC_NODE": 297.5529, "ARG_OF_PERICENTER": 207.9656, "MEAN_ANOMALY": 305.7935, "EPHEMERIS_TYPE": 0, "CLASSIFICATION_TYPE": "U", "NORAD_CAT_ID": 35493, "ELEMENT_SET_NO": 999, "REV_AT_EPOCH": 4483, "BSTAR": 0, "MEAN_MOTION_DOT": -1.75e-06, "MEAN_MOTION_DDOT": 0}, "tle": {"line1": "1 35493U 09034A   25352.25094929 -.00000175  00000+0  00000+0 0  9999", "line2": "2 35493   0.0177 297.5529 0000756 207.9656 305.7935  1.00270493 44830"}}, "geometry": {"type": "Point", "coordinates": [-150.75765535933903, -0.03284668939443307]}}, {"type": "Feature", "properties": {"norad_id": 36097, "name": "INTELSAT 14 (IS-14)", "group": "intelsat", "lat": -0.03604173857765875, "lon": -109.61790734752263, "alt_km": 35776.868647394826, "timestamp": "2025-12-18T13:51:49.328453+00:00", "meta": {"OBJECT_NAME": "INTELSAT 14 (IS-14)", "OBJECT_ID": "2009-064A", "EPOCH": "2025-12-18T02:48:33.538176", "MEAN_MOTION": 1.00271907, "ECCENTRICITY": 0.00024367, "INCLINATION": 0.0111, "RA_OF_ASC_NODE": 327.0074, "ARG_OF_PERICENTER": 310.0171, "MEAN_ANOMALY": 167.1119, "EPHEMERIS_TYPE": 0, "CLASSIFICATION_TYPE": "U", "NORAD_CAT_ID": 36097, "ELEMENT_SET_NO": 999, "REV_AT_EPOCH": 5879, "BSTAR": 0, "MEAN_MOTION_DOT": -2.48e-06, "MEAN_MOTION_DDOT": 0}, "tle": {"line1": "1 36097U 09064A   25352.11705484 -.00000248  00000+0  00000+0 0  9994", "line2": "2 36097   0.0111 327.0074 0002436 310.0171 167.1119  1.00271907 58793"}}, "geometry": {"type": "Point", "coordinates": [-109.61790734752263, -0.03604173857765875]}}, {"type": "Feature", "properties": {"norad_id": 36106, "name": "INTELSAT 15 (IS-15)", "group": "intelsat", "lat": 0.024639454877962715, "lon": 20.56101294638017, "alt_km": 35788.09397681274, "timestamp": "2025-12-18T13:51:49.328465+00:00", "meta": {"OBJECT_NAME": "INTELSAT 15 (IS-15)", "OBJECT_ID": "2009-067A", "EPOCH": "2025-12-18T00:00:11.704608", "MEAN_MOTION": 1.00271538, "ECCENTRICITY": 0.00021581, "INCLINATION": 0.0174, "RA_OF_ASC_NODE": 347.0041, "ARG_OF_PERICENTER": 291.6161, "MEAN_ANOMALY": 253.4528, "EPHEMERIS_TYPE": 0, "CLASSIFICATION_TYPE": "U", "NORAD_CAT_ID": 36106, "ELEMENT_SET_NO": 999, "REV_AT_EPOCH": 3941, "BSTAR": 0, "MEAN_MOTION_DOT": -1.6e-06, "MEAN_MOTION_DDOT": 0}, "tle": {"line1": "1 36106U 09067A   25352.00013547 -.00000160  00000+0  00000+0 0  9991", "line2": "2 36106   0.0174 347.0041 0002158 291.6161 253.4528  1.00271538 39414"}}, "geometry": {"type": "Point", "coordinates": [20.56101294638017, 0.024639454877962715]}}, {"type": "Feature", "properties": {"norad_id": 36131, "name": "DIRECTV 12", "group": "intelsat", "lat": 0.0041288400448695325, "lon": -167.33630656434698, "alt_km": 35789.4493310321, "timestamp": "2025-12-18T13:51:49.328478+00:00", "meta": {"OBJECT_NAME": "DIRECTV 12", "OBJECT_ID": "2009-075A", "EPOCH": "2025-12-18T05:58:46.249824", "MEAN_MOTION": 1.00269422, "ECCENTRICITY": 6.523e-05, "INCLINATION": 0.0447, "RA_OF_ASC_NODE": 145.6516, "ARG_OF_PERICENTER": 217.5866, "MEAN_ANOMALY": 70.8544, "EPHEMERIS_TYPE": 0, "CLASSIFICATION_TYPE": "U", "NORAD_CAT_ID": 36131, "ELEMENT_SET_NO": 999, "REV_AT_EPOCH": 4473, "BSTAR": 0, "MEAN_MOTION_DOT": -7.8e-07, "MEAN_MOTION_DDOT": 0}, "tle": {"line1": "1 36131U 09075A   25352.24914641 -.00000078  00000+0  00000+0 0  9997", "line2": "2 36131   0.0447 145.6516 0000652 217.5866  70.8544  1.00269422 44739"}}, "geometry": {"type": "Point", "coordinates": [-167.33630656434698, 0.0041288400448695325]}}, {"type": "Feature", "properties": {"norad_id": 36397, "name": "INTELSAT 16 (IS-16)", "group": "intelsat", "lat": -0.023547645294024675, "lon": -140.8261947365869, "alt_km": 35780.74839077579, "timestamp": "2025-12-18T13:51:49.328490+00:00", "meta": {"OBJECT_NAME": "INTELSAT 16 (IS-16)", "OBJECT_ID": "2010-006A", "EPOCH": "2025-12-18T06:13:15.155616", "MEAN_MOTION": 1.00272496, "ECCENTRICITY": 0.00018382, "INCLINATION": 0.0087, "RA_OF_ASC_NODE": 4.2963, "ARG_OF_PERICENTER": 263.3624, "MEAN_ANOMALY": 196.5855, "EPHEMERIS_TYPE": 0, "CLASSIFICATION_TYPE": "U", "NORAD_CAT_ID": 36397, "ELEMENT_SET_NO": 999, "REV_AT_EPOCH": 5784, "BSTAR": 0, "MEAN_MOTION_DOT": -2.2e-06, "MEAN_MOTION_DDOT": 0}, "tle": {"line1": "1 36397U 10006A   25352.25920319 -.00000220  00000+0  00000+0 0  9996", "line2": "2 36397   0.0087   4.2963 0001838 263.3624 196.5855  1.00272496 57849"}}, "geometry": {"type": "Point", "coordinates": [-140.8261947365869, -0.023547645294024675]}}, {"type": "Feature", "properties": {"norad_id": 37185, "name": "XM-5", "group": "intelsat", "lat": -0.06414350861991705, "lon": -179.80210695566853, "alt_km": 35780.420144110394, "timestamp": "2025-12-18T13:51:49.328502+00:00", "meta": {"OBJECT_NAME": "XM-5", "OBJECT_ID": "2010-053A", "EPOCH": "2025-12-18T05:51:57.087072", "MEAN_MOTION": 1.00270796, "ECCENTRICITY": 0.00017945, "INCLINATION": 0.0621, "RA_OF_ASC_NODE": 272.5607, "ARG_OF_PERICENTER": 229.7994, "MEAN_ANOMALY": 277.5419, "EPHEMERIS_TYPE": 0, "CLASSIFICATION_TYPE": "U", "NORAD_CAT_ID": 37185, "ELEMENT_SET_NO": 999, "REV_AT_EPOCH": 5566, "BSTAR": 0, "MEAN_MOTION_DOT": 2e-08, "MEAN_MOTION_DDOT": 0}, "tle": {"line1": "1 37185U 10053A   25352.24441073  .00000002  00000+0  00000+0 0  9995", "line2": "2 37185   0.0621 272.5607 0001794 229.7994 277.5419  1.00270796 55666"}}, "geometry": {"type": "Point", "coordinates": [-179.80210695566853, -0.06414350861991705]}}, {"type": "Feature", "properties": {"norad_id": 37238, "name": "INTELSAT 17 (IS-17)", "group": "intelsat", "lat": -0.00031387982898687815, "lon": 1.4123414413914155, "alt_km": 35784.07329986417, "timestamp": "2025-12-18T13:51:49.328514+00:00", "meta": {"OBJECT_NAME": "INTELSAT 17 (IS-17)", "OBJECT_ID": "2010-065B", "EPOCH": "2025-12-18T01:37:24.891744", "MEAN_MOTION": 1.00270698, "ECCENTRICITY": 0.00026517, "INCLINATION": 0.0059, "RA_OF_ASC_NODE": 94.2104, "ARG_OF_PERICENTER": 189.1543, "MEAN_ANOMALY": 253.9267, "EPHEMERIS_TYPE": 0, "CLASSIFICATION_TYPE": "U", "NORAD_CAT_ID": 37238, "ELEMENT_SET_NO": 999, "REV_AT_EPOCH": 5143, "BSTAR": 0, "MEAN_MOTION_DOT": 2.4e-07, "MEAN_MOTION_DDOT": 0}, "tle": {"line1": "1 37238U 10065B   25352.06764921  .00000024  00000+0  00000+0 0  9991", "line2": "2 37238   0.0059  94.2104 0002651 189.1543 253.9267  1.00270698 51434"}}, "geometry": {"type": "Point", "coordinates": [1.4123414413914155, -0.00031387982898687815]}}, {"type": "Feature", "properties": {"norad_id": 37392, "name": "INTELSAT 28 (IS-28)", "group": "intelsat", "lat": 0.0030264328873746598, "lon": -96.30492375234547, "alt_km": 35770.944268626765, "timestamp": "2025-12-18T13:51:49.328525+00:00", "meta": {"OBJECT_NAME": "INTELSAT 28 (IS-28)", "OBJECT_ID": "2011-016A", "EPOCH": "2025-12-18T01:09:35.057088", "MEAN_MOTION": 1.0027065, "ECCENTRICITY": 0.00036852, "INCLINATION": 1.3377, "RA_OF_ASC_NODE": 84.9978, "ARG_OF_PERICENTER": 185.8158, "MEAN_ANOMALY": 161.8165, "EPHEMERIS_TYPE": 0, "CLASSIFICATION_TYPE": "U", "NORAD_CAT_ID": 37392, "ELEMENT_SET_NO": 999, "REV_AT_EPOCH": 5146, "BSTAR": 0, "MEAN_MOTION_DOT": -2.01e-06, "MEAN_MOTION_DDOT": 0}, "tle": {"line1": "1 37392U 11016A   25352.04832242 -.00000201  00000+0  00000+0 0  9997", "line2": "2 37392   1.3377  84.9978 0003685 185.8158 161.8165  1.00270650 51465"}}, "geometry": {"type": "Point", "coordinates": [-96.30492375234547, 0.0030264328873746598]}}]}